STARLINK-36780          
1 67866U 26034S   26072.32313511  .00239892  00000+0  11817-2 0  9996
2 67866  53.1589 193.0048 0001209  91.1930 268.9232 15.80942400  4511
STARLINK-36761          
1 67867U 26034T   26072.57526695  .00249933  00000+0  12289-2 0  9994
2 67867  53.1588 191.7325 0001849  52.6912 307.4279 15.80953603  4557
STARLINK-36762          
1 67868U 26034U   26072.57451712  .00215944  00000+0  10673-2 0  9992
2 67868  53.1586 191.7277 0001503  67.8135 292.3047 15.80937016  4559
STARLINK-36779          
1 67869U 26034V   26072.57376306  .00206298  00000+0  10203-2 0  9999
2 67869  53.1589 191.7224 0001385  65.3693 294.7474 15.80951233  4552
STARLINK-36770          
1 67870U 26034W   26072.57226321  .00198942  00000+0  98509-3 0  9994
2 67870  53.1587 191.7117 0001972 113.9461 246.1768 15.80945950  4554
STARLINK-36769          
1 67871U 26034X   26072.57301883  .00207725  00000+0  10272-2 0  9992
2 67871  53.1586 191.7174 0001637  44.4554 315.6600 15.80949366  4558
STARLINK-36786          
1 67872U 26034Y   26072.57151510  .00194973  00000+0  96653-3 0  9991
2 67872  53.1585 191.7079 0001653  38.6709 321.4432 15.80933343  4553
STARLINK-36783          
1 67873U 26034Z   26072.25466376  .00249529  00000+0  12286-2 0  9993
2 67873  53.1589 193.2857 0001433  80.0889 280.0296 15.80926378  4508
STARLINK-36730          
1 67874U 26034AA  26072.57001562  .00157109  00000+0  78374-3 0  9994
2 67874  53.1585 191.6969 0001233  91.7530 268.3634 15.80911587  4557
STARLINK-36727          
1 67875U 26034AB  26072.31638131  .00269193  00000+0  13204-2 0  9992
2 67875  53.1586 192.9593 0001155  33.7225 326.3871 15.80953355  4519
STARLINK-36743          
1 67876U 26034AC  26072.56851218  .00203492  00000+0  10069-2 0  9999
2 67876  53.1589 191.6866 0001023  67.8757 292.2375 15.80948385  4555
STARLINK-36784          
1 67877U 26034AD  26072.31488225  .00253626  00000+0  12463-2 0  9991
2 67877  53.1587 192.9492 0001069 109.9379 250.1759 15.80957108  4519
STARLINK-36689          
1 67878U 26034AE  26072.37735271  .00272563  00000+0  13354-2 0  9995
2 67878  53.1584 192.6266 0001358  94.5264 265.5914 15.80969500  4529
STARLINK-36818          
1 67879U 26035A   26072.58334491 -.01913462  00000+0 -11394-1 0  9993
2 67879  97.2830   5.1447 0001687 110.0715 290.9372 15.80900857  4386
STARLINK-36821          
1 67880U 26035B   26072.58334491 -.00248371  00000+0 -13272-2 0  9992
2 67880  97.2819   5.1474 0001728  77.6548 331.9047 15.80911071  4388
STARLINK-36808          
1 67881U 26035C   26072.58334491 -.00051480  00000+0 -26935-3 0  9997
2 67881  97.2827   5.1456 0001100  89.7634 315.5291 15.80836537  4384
