[{"OBJECT_NAME":"STARLINK-36780","OBJECT_ID":"2026-034S","EPOCH":"2026-03-13T07:45:18.873504","MEAN_MOTION":15.809424,"ECCENTRICITY":0.0001209,"INCLINATION":53.1589,"RA_OF_ASC_NODE":193.0048,"ARG_OF_PERICENTER":91.193,"MEAN_ANOMALY":268.9232,"EPHEMERIS_TYPE":0,"CLASSIFICATION_TYPE":"U","NORAD_CAT_ID":67866,"ELEMENT_SET_NO":999,"REV_AT_EPOCH":451,"BSTAR":0.0011817075,"MEAN_MOTION_DOT":0.00239892,"MEAN_MOTION_DDOT":0},{"OBJECT_NAME":"STARLINK-36761","OBJECT_ID":"2026-034T","EPOCH":"2026-03-13T13:48:23.064480","MEAN_MOTION":15.80953603,"ECCENTRICITY":0.00018491,"INCLINATION":53.1588,"RA_OF_ASC_NODE":191.7325,"ARG_OF_PERICENTER":52.6912,"MEAN_ANOMALY":307.4279,"EPHEMERIS_TYPE":0,"CLASSIFICATION_TYPE":"U","NORAD_CAT_ID":67867,"ELEMENT_SET_NO":999,"REV_AT_EPOCH":455,"BSTAR":0.0012289406,"MEAN_MOTION_DOT":0.00249933,"MEAN_MOTION_DDOT":0},{"OBJECT_NAME":"STARLINK-36762","OBJECT_ID":"2026-034U","EPOCH":"2026-03-13T13:47:18.279168","MEAN_MOTION":15.80937016,"ECCENTRICITY":0.00015037,"INCLINATION":53.1586,"RA_OF_ASC_NODE":191.7277,"ARG_OF_PERICENTER":67.8135,"MEAN_ANOMALY":292.3047,"EPHEMERIS_TYPE":0,"CLASSIFICATION_TYPE":"U","NORAD_CAT_ID":67868,"ELEMENT_SET_NO":999,"REV_AT_EPOCH":455,"BSTAR":0.0010673269,"MEAN_MOTION_DOT":0.00215944,"MEAN_MOTION_DDOT":0},{"OBJECT_NAME":"STARLINK-36779","OBJECT_ID":"2026-034V","EPOCH":"2026-03-13T13:46:13.128384","MEAN_MOTION":15.80951233,"ECCENTRICITY":0.00013854,"INCLINATION":53.1589,"RA_OF_ASC_NODE":191.7224,"ARG_OF_PERICENTER":65.3693,"MEAN_ANOMALY":294.7474,"EPHEMERIS_TYPE":0,"CLASSIFICATION_TYPE":"U","NORAD_CAT_ID":67869,"ELEMENT_SET_NO":999,"REV_AT_EPOCH":455,"BSTAR":0.0010202854,"MEAN_MOTION_DOT":0.00206298,"MEAN_MOTION_DDOT":0},{"OBJECT_NAME":"STARLINK-36770","OBJECT_ID":"2026-034W","EPOCH":"2026-03-13T13:44:03.541344","MEAN_MOTION":15.8094595,"ECCENTRICITY":0.00019724,"INCLINATION":53.1587,"RA_OF_ASC_NODE":191.7117,"ARG_OF_PERICENTER":113.9461,"MEAN_ANOMALY":246.1768,"EPHEMERIS_TYPE":0,"CLASSIFICATION_TYPE":"U","NORAD_CAT_ID":67870,"ELEMENT_SET_NO":999,"REV_AT_EPOCH":455,"BSTAR":0.00098508644,"MEAN_MOTION_DOT":0.00198942,"MEAN_MOTION_DDOT":0},{"OBJECT_NAME":"STARLINK-36769","OBJECT_ID":"2026-034X","EPOCH":"2026-03-13T13:45:08.826912","MEAN_MOTION":15.80949366,"ECCENTRICITY":0.00016377,"INCLINATION":53.1586,"RA_OF_ASC_NODE":191.7174,"ARG_OF_PERICENTER":44.4554,"MEAN_ANOMALY":315.66,"EPHEMERIS_TYPE":0,"CLASSIFICATION_TYPE":"U","NORAD_CAT_ID":67871,"ELEMENT_SET_NO":999,"REV_AT_EPOCH":455,"BSTAR":0.0010272304,"MEAN_MOTION_DOT":0.00207725,"MEAN_MOTION_DDOT":0},{"OBJECT_NAME":"STARLINK-36786","OBJECT_ID":"2026-034Y","EPOCH":"2026-03-13T13:42:58.904640","MEAN_MOTION":15.80933343,"ECCENTRICITY":0.00016538,"INCLINATION":53.1585,"RA_OF_ASC_NODE":191.7079,"ARG_OF_PERICENTER":38.6709,"MEAN_ANOMALY":321.4432,"EPHEMERIS_TYPE":0,"CLASSIFICATION_TYPE":"U","NORAD_CAT_ID":67872,"ELEMENT_SET_NO":999,"REV_AT_EPOCH":455,"BSTAR":0.00096652604,"MEAN_MOTION_DOT":0.00194973,"MEAN_MOTION_DDOT":0},{"OBJECT_NAME":"STARLINK-36783","OBJECT_ID":"2026-034Z","EPOCH":"2026-03-13T06:06:42.948864","MEAN_MOTION":15.80926378,"ECCENTRICITY":0.00014334,"INCLINATION":53.1589,"RA_OF_ASC_NODE":193.2857,"ARG_OF_PERICENTER":80.0889,"MEAN_ANOMALY":280.0296,"EPHEMERIS_TYPE":0,"CLASSIFICATION_TYPE":"U","NORAD_CAT_ID":67873,"ELEMENT_SET_NO":999,"REV_AT_EPOCH":450,"BSTAR":0.0012285667,"MEAN_MOTION_DOT":0.00249529,"MEAN_MOTION_DDOT":0},{"OBJECT_NAME":"STARLINK-36730","OBJECT_ID":"2026-034AA","EPOCH":"2026-03-13T13:40:49.349568","MEAN_MOTION":15.80911587,"ECCENTRICITY":0.00012334,"INCLINATION":53.1585,"RA_OF_ASC_NODE":191.6969,"ARG_OF_PERICENTER":91.753,"MEAN_ANOMALY":268.3634,"EPHEMERIS_TYPE":0,"CLASSIFICATION_TYPE":"U","NORAD_CAT_ID":67874,"ELEMENT_SET_NO":999,"REV_AT_EPOCH":455,"BSTAR":0.00078373511,"MEAN_MOTION_DOT":0.00157109,"MEAN_MOTION_DDOT":0},{"OBJECT_NAME":"STARLINK-36727","OBJECT_ID":"2026-034AB","EPOCH":"2026-03-13T07:35:35.345184","MEAN_MOTION":15.80953355,"ECCENTRICITY":0.00011559,"INCLINATION":53.1586,"RA_OF_ASC_NODE":192.9593,"ARG_OF_PERICENTER":33.7225,"MEAN_ANOMALY":326.3871,"EPHEMERIS_TYPE":0,"CLASSIFICATION_TYPE":"U","NORAD_CAT_ID":67875,"ELEMENT_SET_NO":999,"REV_AT_EPOCH":451,"BSTAR":0.0013204259,"MEAN_MOTION_DOT":0.00269193,"MEAN_MOTION_DDOT":0},{"OBJECT_NAME":"STARLINK-36743","OBJECT_ID":"2026-034AC","EPOCH":"2026-03-13T13:38:39.452352","MEAN_MOTION":15.80948385,"ECCENTRICITY":0.00010236,"INCLINATION":53.1589,"RA_OF_ASC_NODE":191.6866,"ARG_OF_PERICENTER":67.8757,"MEAN_ANOMALY":292.2375,"EPHEMERIS_TYPE":0,"CLASSIFICATION_TYPE":"U","NORAD_CAT_ID":67876,"ELEMENT_SET_NO":999,"REV_AT_EPOCH":455,"BSTAR":0.0010069158,"MEAN_MOTION_DOT":0.00203492,"MEAN_MOTION_DDOT":0},{"OBJECT_NAME":"STARLINK-36784","OBJECT_ID":"2026-034AD","EPOCH":"2026-03-13T07:33:25.826400","MEAN_MOTION":15.80957108,"ECCENTRICITY":0.00010698,"INCLINATION":53.1587,"RA_OF_ASC_NODE":192.9492,"ARG_OF_PERICENTER":109.9379,"MEAN_ANOMALY":250.1759,"EPHEMERIS_TYPE":0,"CLASSIFICATION_TYPE":"U","NORAD_CAT_ID":67877,"ELEMENT_SET_NO":999,"REV_AT_EPOCH":451,"BSTAR":0.0012463167,"MEAN_MOTION_DOT":0.00253626,"MEAN_MOTION_DDOT":0},{"OBJECT_NAME":"STARLINK-36689","OBJECT_ID":"2026-034AE","EPOCH":"2026-03-13T09:03:23.274144","MEAN_MOTION":15.809695,"ECCENTRICITY":0.00013584,"INCLINATION":53.1584,"RA_OF_ASC_NODE":192.6266,"ARG_OF_PERICENTER":94.5264,"MEAN_ANOMALY":265.5914,"EPHEMERIS_TYPE":0,"CLASSIFICATION_TYPE":"U","NORAD_CAT_ID":67878,"ELEMENT_SET_NO":999,"REV_AT_EPOCH":452,"BSTAR":0.0013353974,"MEAN_MOTION_DOT":0.00272563,"MEAN_MOTION_DDOT":0},{"OBJECT_NAME":"STARLINK-36818","OBJECT_ID":"2026-035A","EPOCH":"2026-03-13T14:00:01.000224","MEAN_MOTION":15.80900857,"ECCENTRICITY":0.00016874,"INCLINATION":97.283,"RA_OF_ASC_NODE":5.1447,"ARG_OF_PERICENTER":110.0715,"MEAN_ANOMALY":290.9372,"EPHEMERIS_TYPE":0,"CLASSIFICATION_TYPE":"U","NORAD_CAT_ID":67879,"ELEMENT_SET_NO":999,"REV_AT_EPOCH":438,"BSTAR":-0.011394111,"MEAN_MOTION_DOT":-0.01913462,"MEAN_MOTION_DDOT":0},{"OBJECT_NAME":"STARLINK-36821","OBJECT_ID":"2026-035B","EPOCH":"2026-03-13T14:00:01.000224","MEAN_MOTION":15.80911071,"ECCENTRICITY":0.00017281,"INCLINATION":97.2819,"RA_OF_ASC_NODE":5.1474,"ARG_OF_PERICENTER":77.6548,"MEAN_ANOMALY":331.9047,"EPHEMERIS_TYPE":0,"CLASSIFICATION_TYPE":"U","NORAD_CAT_ID":67880,"ELEMENT_SET_NO":999,"REV_AT_EPOCH":438,"BSTAR":-0.0013271859,"MEAN_MOTION_DOT":-0.00248371,"MEAN_MOTION_DDOT":0},{"OBJECT_NAME":"STARLINK-36808","OBJECT_ID":"2026-035C","EPOCH":"2026-03-13T14:00:01.000224","MEAN_MOTION":15.80836537,"ECCENTRICITY":0.00011009,"INCLINATION":97.2827,"RA_OF_ASC_NODE":5.1456,"ARG_OF_PERICENTER":89.7634,"MEAN_ANOMALY":315.5291,"EPHEMERIS_TYPE":0,"CLASSIFICATION_TYPE":"U","NORAD_CAT_ID":67881,"ELEMENT_SET_NO":999,"REV_AT_EPOCH":438,"BSTAR":-0.00026935484,"MEAN_MOTION_DOT":-0.0005148,"MEAN_MOTION_DDOT":0}]
